FENGYUN 2G DEB          
1 43646U 14090D   26064.50221135 -.00000231  00000+0  00000+0 0  9999
2 43646   7.2802  69.5363 0225205 285.1863  72.4909  1.00217389 40663
AEHF-4 (USA 288)        
1 43651U 18079A   26065.28291546 -.00000279  00000+0  00000+0 0  9997
2 43651   1.4227 354.8503 0064091 359.1659 204.3234  1.00272816 27265
BEIDOU-3 G1             
1 43683U 18085A   26065.32408231 -.00000283  00000+0  00000+0 0  9990
2 43683   2.8155 100.3325 0001489  17.2822 303.1125  1.00268050 27023
GSAT-29                 
1 43698U 18089A   26065.23794550  .00000080  00000+0  00000+0 0  9996
2 43698   0.0534 272.7048 0001718  61.6219 330.3071  1.00272655 26751
ES'HAIL 2               
1 43700U 18090A   26064.51699441  .00000137  00000+0  00000+0 0  9998
2 43700   0.0102 207.4790 0002702 172.6625 355.0003  1.00272028 26633
GEO-KOMPSAT-2A          
1 43823U 18100A   26063.26502859  .00000000  00000+0  00000+0 0  9992
2 43823   0.0084  82.1864 0001750 326.5345 336.9688  1.00267019 26573
GSAT-11                 
1 43824U 18100B   26065.16834163 -.00000082  00000+0  00000+0 0  9991
2 43824   0.0815 270.9937 0005161 145.3671 242.1153  1.00272043 26447
GSAT-7A                 
1 43864U 18105A   26065.22267013  .00000022  00000+0  00000+0 0  9994
2 43864   0.0948 277.9826 0001957  59.9277 328.9185  1.00271714 26412
COSMOS 2533             
1 43867U 18107A   26065.16756163 -.00000044  00000+0  00000+0 0  9996
2 43867   0.0169 119.3697 0000357 355.7587 179.0814  1.00273127 26402
BREEZE-M R/B            
1 43868U 18107B   26064.49325498 -.00000159  00000+0  00000+0 0  9992
2 43868   7.1381  74.9794 0721610 309.6964  44.3020  0.90469573 23770
TJS-3                   
1 43874U 18110A   26064.73329492 -.00000227  00000+0  00000+0 0  9994
2 43874   2.2781  81.7709 0016970 345.1463  87.7820  1.00349408 26389
ZHONGXING-2D            
1 43920U 19001A   26065.32208898 -.00000342  00000+0  00000+0 0  9996
2 43920   0.0515 299.0722 0001018   1.7525 109.1842  1.00271175 53043
ATLAS 5 CENTAUR DEB     
1 43959U 14055N   26064.53459500 -.00000074  00000+0  00000+0 0  9994
2 43959  19.8752 147.1826 5064156 155.8887 239.8504  1.81438793 49785
ATLAS 5 CENTAUR DEB     
1 43960U 14055P   26064.73598947 -.00000075  00000+0  00000+0 0  9998
2 43960  19.9562 147.7004 5082555 155.6186 240.6483  1.81619173 49761
ATLAS 5 CENTAUR DEB     
1 43967U 14055W   26065.06862871 -.00000086  00000+0  00000+0 0  9994
2 43967  20.0839 144.0520 5047628 162.6133 224.1842  1.82856246 50115
ATLAS 5 CENTAUR DEB     
1 43968U 14055X   26064.22614823 -.00000085  00000+0  00000+0 0  9993
2 43968  20.1274 141.7274 5054216 166.6550 214.3678  1.83129985 50176
ATLAS 5 CENTAUR DEB     
1 43969U 14055Y   26054.84512084 -.00000034  00000+0  00000+0 0  9991
2 43969  19.3984 160.4739 5089053 129.2912 288.0175  1.77735719 29350
