[{"OBJECT_NAME":"FENGYUN 2G DEB","OBJECT_ID":"2014-090D","EPOCH":"2026-03-05T12:03:11.060640","MEAN_MOTION":1.00217389,"ECCENTRICITY":0.0225205,"INCLINATION":7.2802,"RA_OF_ASC_NODE":69.5363,"ARG_OF_PERICENTER":285.1863,"MEAN_ANOMALY":72.4909,"EPHEMERIS_TYPE":0,"CLASSIFICATION_TYPE":"U","NORAD_CAT_ID":43646,"ELEMENT_SET_NO":999,"REV_AT_EPOCH":4066,"BSTAR":0,"MEAN_MOTION_DOT":-2.31e-6,"MEAN_MOTION_DDOT":0},{"OBJECT_NAME":"AEHF-4 (USA 288)","OBJECT_ID":"2018-079A","EPOCH":"2026-03-06T06:47:23.895744","MEAN_MOTION":1.00272816,"ECCENTRICITY":0.00640916,"INCLINATION":1.4227,"RA_OF_ASC_NODE":354.8503,"ARG_OF_PERICENTER":359.1659,"MEAN_ANOMALY":204.3234,"EPHEMERIS_TYPE":0,"CLASSIFICATION_TYPE":"U","NORAD_CAT_ID":43651,"ELEMENT_SET_NO":999,"REV_AT_EPOCH":2726,"BSTAR":0,"MEAN_MOTION_DOT":-2.79e-6,"MEAN_MOTION_DDOT":0},{"OBJECT_NAME":"BEIDOU-3 G1","OBJECT_ID":"2018-085A","EPOCH":"2026-03-06T07:46:40.711584","MEAN_MOTION":1.0026805,"ECCENTRICITY":0.00014893,"INCLINATION":2.8155,"RA_OF_ASC_NODE":100.3325,"ARG_OF_PERICENTER":17.2822,"MEAN_ANOMALY":303.1125,"EPHEMERIS_TYPE":0,"CLASSIFICATION_TYPE":"U","NORAD_CAT_ID":43683,"ELEMENT_SET_NO":999,"REV_AT_EPOCH":2702,"BSTAR":0,"MEAN_MOTION_DOT":-2.83e-6,"MEAN_MOTION_DDOT":0},{"OBJECT_NAME":"GSAT-29","OBJECT_ID":"2018-089A","EPOCH":"2026-03-06T05:42:38.491200","MEAN_MOTION":1.00272655,"ECCENTRICITY":0.00017185,"INCLINATION":0.0534,"RA_OF_ASC_NODE":272.7048,"ARG_OF_PERICENTER":61.6219,"MEAN_ANOMALY":330.3071,"EPHEMERIS_TYPE":0,"CLASSIFICATION_TYPE":"U","NORAD_CAT_ID":43698,"ELEMENT_SET_NO":999,"REV_AT_EPOCH":2675,"BSTAR":0,"MEAN_MOTION_DOT":8.0e-7,"MEAN_MOTION_DDOT":0},{"OBJECT_NAME":"ES'HAIL 2","OBJECT_ID":"2018-090A","EPOCH":"2026-03-05T12:24:28.317024","MEAN_MOTION":1.00272028,"ECCENTRICITY":0.0002702,"INCLINATION":0.0102,"RA_OF_ASC_NODE":207.479,"ARG_OF_PERICENTER":172.6625,"MEAN_ANOMALY":355.0003,"EPHEMERIS_TYPE":0,"CLASSIFICATION_TYPE":"U","NORAD_CAT_ID":43700,"ELEMENT_SET_NO":999,"REV_AT_EPOCH":2663,"BSTAR":0,"MEAN_MOTION_DOT":1.37e-6,"MEAN_MOTION_DDOT":0},{"OBJECT_NAME":"GEO-KOMPSAT-2A","OBJECT_ID":"2018-100A","EPOCH":"2026-03-04T06:21:38.470176","MEAN_MOTION":1.00267019,"ECCENTRICITY":0.00017508,"INCLINATION":0.0084,"RA_OF_ASC_NODE":82.1864,"ARG_OF_PERICENTER":326.5345,"MEAN_ANOMALY":336.9688,"EPHEMERIS_TYPE":0,"CLASSIFICATION_TYPE":"U","NORAD_CAT_ID":43823,"ELEMENT_SET_NO":999,"REV_AT_EPOCH":2657,"BSTAR":0,"MEAN_MOTION_DOT":0,"MEAN_MOTION_DDOT":0},{"OBJECT_NAME":"GSAT-11","OBJECT_ID":"2018-100B","EPOCH":"2026-03-06T04:02:24.716832","MEAN_MOTION":1.00272043,"ECCENTRICITY":0.00051616,"INCLINATION":0.0815,"RA_OF_ASC_NODE":270.9937,"ARG_OF_PERICENTER":145.3671,"MEAN_ANOMALY":242.1153,"EPHEMERIS_TYPE":0,"CLASSIFICATION_TYPE":"U","NORAD_CAT_ID":43824,"ELEMENT_SET_NO":999,"REV_AT_EPOCH":2644,"BSTAR":0,"MEAN_MOTION_DOT":-8.2e-7,"MEAN_MOTION_DDOT":0},{"OBJECT_NAME":"GSAT-7A","OBJECT_ID":"2018-105A","EPOCH":"2026-03-06T05:20:38.699232","MEAN_MOTION":1.00271714,"ECCENTRICITY":0.00019579,"INCLINATION":0.0948,"RA_OF_ASC_NODE":277.9826,"ARG_OF_PERICENTER":59.9277,"MEAN_ANOMALY":328.9185,"EPHEMERIS_TYPE":0,"CLASSIFICATION_TYPE":"U","NORAD_CAT_ID":43864,"ELEMENT_SET_NO":999,"REV_AT_EPOCH":2641,"BSTAR":0,"MEAN_MOTION_DOT":2.2e-7,"MEAN_MOTION_DDOT":0},{"OBJECT_NAME":"COSMOS 2533","OBJECT_ID":"2018-107A","EPOCH":"2026-03-06T04:01:17.324832","MEAN_MOTION":1.00273127,"ECCENTRICITY":3.575e-5,"INCLINATION":0.0169,"RA_OF_ASC_NODE":119.3697,"ARG_OF_PERICENTER":355.7587,"MEAN_ANOMALY":179.0814,"EPHEMERIS_TYPE":0,"CLASSIFICATION_TYPE":"U","NORAD_CAT_ID":43867,"ELEMENT_SET_NO":999,"REV_AT_EPOCH":2640,"BSTAR":0,"MEAN_MOTION_DOT":-4.4e-7,"MEAN_MOTION_DDOT":0},{"OBJECT_NAME":"BREEZE-M R/B","OBJECT_ID":"2018-107B","EPOCH":"2026-03-05T11:50:17.230272","MEAN_MOTION":0.90469573,"ECCENTRICITY":0.07216101,"INCLINATION":7.1381,"RA_OF_ASC_NODE":74.9794,"ARG_OF_PERICENTER":309.6964,"MEAN_ANOMALY":44.302,"EPHEMERIS_TYPE":0,"CLASSIFICATION_TYPE":"U","NORAD_CAT_ID":43868,"ELEMENT_SET_NO":999,"REV_AT_EPOCH":2377,"BSTAR":0,"MEAN_MOTION_DOT":-1.59e-6,"MEAN_MOTION_DDOT":0},{"OBJECT_NAME":"TJS-3","OBJECT_ID":"2018-110A","EPOCH":"2026-03-05T17:35:56.681088","MEAN_MOTION":1.00349408,"ECCENTRICITY":0.001697,"INCLINATION":2.2781,"RA_OF_ASC_NODE":81.7709,"ARG_OF_PERICENTER":345.1463,"MEAN_ANOMALY":87.782,"EPHEMERIS_TYPE":0,"CLASSIFICATION_TYPE":"U","NORAD_CAT_ID":43874,"ELEMENT_SET_NO":999,"REV_AT_EPOCH":2638,"BSTAR":0,"MEAN_MOTION_DOT":-2.27e-6,"MEAN_MOTION_DDOT":0},{"OBJECT_NAME":"ZHONGXING-2D","OBJECT_ID":"2019-001A","EPOCH":"2026-03-06T07:43:48.487872","MEAN_MOTION":1.00271175,"ECCENTRICITY":0.00010188,"INCLINATION":0.0515,"RA_OF_ASC_NODE":299.0722,"ARG_OF_PERICENTER":1.7525,"MEAN_ANOMALY":109.1842,"EPHEMERIS_TYPE":0,"CLASSIFICATION_TYPE":"U","NORAD_CAT_ID":43920,"ELEMENT_SET_NO":999,"REV_AT_EPOCH":5304,"BSTAR":0,"MEAN_MOTION_DOT":-3.42e-6,"MEAN_MOTION_DDOT":0},{"OBJECT_NAME":"ATLAS 5 CENTAUR DEB","OBJECT_ID":"2014-055N","EPOCH":"2026-03-05T12:49:49.008000","MEAN_MOTION":1.81438793,"ECCENTRICITY":0.50641563,"INCLINATION":19.8752,"RA_OF_ASC_NODE":147.1826,"ARG_OF_PERICENTER":155.8887,"MEAN_ANOMALY":239.8504,"EPHEMERIS_TYPE":0,"CLASSIFICATION_TYPE":"U","NORAD_CAT_ID":43959,"ELEMENT_SET_NO":999,"REV_AT_EPOCH":4978,"BSTAR":0,"MEAN_MOTION_DOT":-7.4e-7,"MEAN_MOTION_DDOT":0},{"OBJECT_NAME":"ATLAS 5 CENTAUR DEB","OBJECT_ID":"2014-055P","EPOCH":"2026-03-05T17:39:49.490208","MEAN_MOTION":1.81619173,"ECCENTRICITY":0.50825554,"INCLINATION":19.9562,"RA_OF_ASC_NODE":147.7004,"ARG_OF_PERICENTER":155.6186,"MEAN_ANOMALY":240.6483,"EPHEMERIS_TYPE":0,"CLASSIFICATION_TYPE":"U","NORAD_CAT_ID":43960,"ELEMENT_SET_NO":999,"REV_AT_EPOCH":4976,"BSTAR":0,"MEAN_MOTION_DOT":-7.5e-7,"MEAN_MOTION_DDOT":0},{"OBJECT_NAME":"ATLAS 5 CENTAUR DEB","OBJECT_ID":"2014-055W","EPOCH":"2026-03-06T01:38:49.520544","MEAN_MOTION":1.82856246,"ECCENTRICITY":0.50476282,"INCLINATION":20.0839,"RA_OF_ASC_NODE":144.052,"ARG_OF_PERICENTER":162.6133,"MEAN_ANOMALY":224.1842,"EPHEMERIS_TYPE":0,"CLASSIFICATION_TYPE":"U","NORAD_CAT_ID":43967,"ELEMENT_SET_NO":999,"REV_AT_EPOCH":5011,"BSTAR":0,"MEAN_MOTION_DOT":-8.6e-7,"MEAN_MOTION_DDOT":0},{"OBJECT_NAME":"ATLAS 5 CENTAUR DEB","OBJECT_ID":"2014-055X","EPOCH":"2026-03-05T05:25:39.207072","MEAN_MOTION":1.83129985,"ECCENTRICITY":0.50542161,"INCLINATION":20.1274,"RA_OF_ASC_NODE":141.7274,"ARG_OF_PERICENTER":166.655,"MEAN_ANOMALY":214.3678,"EPHEMERIS_TYPE":0,"CLASSIFICATION_TYPE":"U","NORAD_CAT_ID":43968,"ELEMENT_SET_NO":999,"REV_AT_EPOCH":5017,"BSTAR":0,"MEAN_MOTION_DOT":-8.5e-7,"MEAN_MOTION_DDOT":0},{"OBJECT_NAME":"ATLAS 5 CENTAUR DEB","OBJECT_ID":"2014-055Y","EPOCH":"2026-02-23T20:16:58.440576","MEAN_MOTION":1.77735719,"ECCENTRICITY":0.50890534,"INCLINATION":19.3984,"RA_OF_ASC_NODE":160.4739,"ARG_OF_PERICENTER":129.2912,"MEAN_ANOMALY":288.0175,"EPHEMERIS_TYPE":0,"CLASSIFICATION_TYPE":"U","NORAD_CAT_ID":43969,"ELEMENT_SET_NO":999,"REV_AT_EPOCH":2935,"BSTAR":0,"MEAN_MOTION_DOT":-3.4e-7,"MEAN_MOTION_DDOT":0}]
